start=new Date('2022-02-13T00:00:00.000Z').valueOf();
sats=[{"ECCENTRICITY":"0.00019020","EPOCH":"2022-02-12T03:48:31.599648","TLE_LINE1":"1 48658U 21044W   22043.15869907  .00009305  00000-0  64228-3 0  9990","EPHEMERIS_TYPE":"0","PERIAPSIS":"545.813","CLASSIFICATION_TYPE":"U","FILE":"3298493","APOAPSIS":"548.447","OBJECT_NAME":"STARLINK-2647","ARG_OF_PERICENTER":"63.7270","REV_AT_EPOCH":"3965","SITE":"AFETR","INCLINATION":"53.0541","PERIOD":"95.590","ELEMENT_SET_NO":"999","MEAN_MOTION":"15.06427193","TIME_SYSTEM":"UTC","LAUNCH_DATE":"2021-05-26","REF_FRAME":"TEME","CENTER_NAME":"EARTH","TLE_LINE2":"2 48658  53.0541 314.9275 0001902  63.7270 296.3914 15.06427193 39654","SEMIMAJOR_AXIS":"6925.265","MEAN_ANOMALY":"296.3914","MEAN_MOTION_DDOT":"0.0000000000000","BSTAR":"0.00064228000000","OBJECT_ID":"2021-044W","RA_OF_ASC_NODE":"314.9275","MEAN_ELEMENT_THEORY":"SGP4","COUNTRY_CODE":"US","OBJECT_TYPE":"PAYLOAD","RCS_SIZE":"LARGE","GP_ID":"195822608","MEAN_MOTION_DOT":"0.00009305","DECAY_DATE":null,"NORAD_CAT_ID":"48658"},{"FILE":"3298742","CLASSIFICATION_TYPE":"U","APOAPSIS":"548.039","ARG_OF_PERICENTER":"80.6333","OBJECT_NAME":"STARLINK-2717","ECCENTRICITY":"0.00012540","EPOCH":"2022-02-12T18:03:04.130496","PERIAPSIS":"546.303","EPHEMERIS_TYPE":"0","TLE_LINE1":"1 48659U 21044X   22043.75213114  .00000051  00000-0  22324-4 0  9991","TIME_SYSTEM":"UTC","TLE_LINE2":"2 48659  53.0548 312.2610 0001254  80.6333 279.4797 15.06413888 40585","MEAN_ANOMALY":"279.4797","SEMIMAJOR_AXIS":"6925.306","CENTER_NAME":"EARTH","REF_FRAME":"TEME","LAUNCH_DATE":"2021-05-26","INCLINATION":"53.0548","SITE":"AFETR","REV_AT_EPOCH":"4058","ELEMENT_SET_NO":"999","PERIOD":"95.591","MEAN_MOTION":"15.06413888","BSTAR":"0.00002232400000","OBJECT_ID":"2021-044X","MEAN_MOTION_DDOT":"0.0000000000000","MEAN_MOTION_DOT":"0.00000051","GP_ID":"195827769","RCS_SIZE":"LARGE","DECAY_DATE":null,"NORAD_CAT_ID":"48659","RA_OF_ASC_NODE":"312.2610","MEAN_ELEMENT_THEORY":"SGP4","OBJECT_TYPE":"PAYLOAD","COUNTRY_CODE":"US"},{"RCS_SIZE":"LARGE","GP_ID":"195823439","MEAN_MOTION_DOT":"0.00003394","DECAY_DATE":null,"NORAD_CAT_ID":"48660","RA_OF_ASC_NODE":"313.4625","MEAN_ELEMENT_THEORY":"SGP4","COUNTRY_CODE":"US","OBJECT_TYPE":"PAYLOAD","OBJECT_ID":"2021-044Y","BSTAR":"0.00024651000000","MEAN_MOTION_DDOT":"0.0000000000000","TIME_SYSTEM":"UTC","REF_FRAME":"TEME","LAUNCH_DATE":"2021-05-26","TLE_LINE2":"2 48660  53.0557 313.4625 0001614  73.8961 286.2206 15.06421712 39705","MEAN_ANOMALY":"286.2206","SEMIMAJOR_AXIS":"6925.282","CENTER_NAME":"EARTH","REV_AT_EPOCH":"3970","INCLINATION":"53.0557","SITE":"AFETR","PERIOD":"95.591","ELEMENT_SET_NO":"999","MEAN_MOTION":"15.06421712","CLASSIFICATION_TYPE":"U","FILE":"3298493","APOAPSIS":"548.265","ARG_OF_PERICENTER":"73.8961","OBJECT_NAME":"STARLINK-2688","ECCENTRICITY":"0.00016140","EPOCH":"2022-02-12T11:35:36.086784","TLE_LINE1":"1 48660U 21044Y   22043.48305656  .00003394  00000-0  24651-3 0  9993","EPHEMERIS_TYPE":"0","PERIAPSIS":"546.029"},{"BSTAR":"0.00023129000000","OBJECT_ID":"2021-044Z","MEAN_MOTION_DDOT":"0.0000000000000","RCS_SIZE":"LARGE","GP_ID":"195820858","MEAN_MOTION_DOT":"0.00003167","DECAY_DATE":null,"NORAD_CAT_ID":"48661","RA_OF_ASC_NODE":"303.7515","MEAN_ELEMENT_THEORY":"SGP4","COUNTRY_CODE":"US","OBJECT_TYPE":"PAYLOAD","FILE":"3298493","CLASSIFICATION_TYPE":"U","APOAPSIS":"548.416","ARG_OF_PERICENTER":"56.8055","OBJECT_NAME":"STARLINK-2708","ECCENTRICITY":"0.00018060","EPOCH":"2022-02-12T10:01:23.748672","TLE_LINE1":"1 48661U 21044Z   22043.41763598  .00003167  00000-0  23129-3 0  9997","EPHEMERIS_TYPE":"0","PERIAPSIS":"545.915","TIME_SYSTEM":"UTC","REF_FRAME":"TEME","LAUNCH_DATE":"2021-05-26","TLE_LINE2":"2 48661  53.0568 303.7515 0001806  56.8055 303.3107 15.06415625 39837","SEMIMAJOR_AXIS":"6925.301","MEAN_ANOMALY":"303.3107","CENTER_NAME":"EARTH","REV_AT_EPOCH":"3983","INCLINATION":"53.0568","SITE":"AFETR","PERIOD":"95.591","ELEMENT_SET_NO":"999","MEAN_MOTION":"15.06415625"},{"ELEMENT_SET_NO":"999","PERIOD":"95.591","MEAN_MOTION":"15.06420545","SITE":"AFETR","INCLINATION":"53.0560","REV_AT_EPOCH":"3985","TLE_LINE2":"2 48662  53.0560 303.1854 0001594  88.5765 271.5407 15.06420545 39852","SEMIMAJOR_AXIS":"6925.286","CENTER_NAME":"EARTH","MEAN_ANOMALY":"271.5407","REF_FRAME":"TEME","LAUNCH_DATE":"2021-05-26","TIME_SYSTEM":"UTC","EPOCH":"2022-02-12T13:07:08.882112","EPHEMERIS_TYPE":"0","PERIAPSIS":"546.047","TLE_LINE1":"1 48662U 21044AA  22043.54663058  .00000088  00000-0  24776-4 0  9991","ECCENTRICITY":"0.00015940","APOAPSIS":"548.254","ARG_OF_PERICENTER":"88.5765","OBJECT_NAME":"STARLINK-2726","CLASSIFICATION_TYPE":"U","FILE":"3298493","MEAN_ELEMENT_THEORY":"SGP4","OBJECT_TYPE":"PAYLOAD","COUNTRY_CODE":"US","RA_OF_ASC_NODE":"303.1854","DECAY_DATE":null,"NORAD_CAT_ID":"48662","MEAN_MOTION_DOT":"0.00000088","GP_ID":"195821108","RCS_SIZE":"LARGE","MEAN_MOTION_DDOT":"0.0000000000000","BSTAR":"0.00002477600000","OBJECT_ID":"2021-044AA"},{"MEAN_MOTION_DDOT":"0.0000000000000","OBJECT_ID":"2021-044AB","BSTAR":"-0.00076923000000","RA_OF_ASC_NODE":"302.2900","MEAN_ELEMENT_THEORY":"SGP4","COUNTRY_CODE":"US","OBJECT_TYPE":"PAYLOAD","RCS_SIZE":"LARGE","GP_ID":"195827300","MEAN_MOTION_DOT":"-0.00011718","DECAY_DATE":null,"NORAD_CAT_ID":"48663","ECCENTRICITY":"0.00013350","EPOCH":"2022-02-12T17:48:27.918720","TLE_LINE1":"1 48663U 21044AB  22043.74198980 -.00011718  00000-0 -76923-3 0  9995","EPHEMERIS_TYPE":"0","PERIAPSIS":"546.316","CLASSIFICATION_TYPE":"U","FILE":"3298727","APOAPSIS":"548.165","OBJECT_NAME":"STARLINK-2667","ARG_OF_PERICENTER":"34.8719","REV_AT_EPOCH":"4072","SITE":"AFETR","INCLINATION":"53.0553","PERIOD":"95.593","ELEMENT_SET_NO":"999","MEAN_MOTION":"15.06391286","TIME_SYSTEM":"UTC","REF_FRAME":"TEME","LAUNCH_DATE":"2021-05-26","MEAN_ANOMALY":"325.2358","TLE_LINE2":"2 48663  53.0553 302.2900 0001335  34.8719 325.2358 15.06391286 40722","SEMIMAJOR_AXIS":"6925.375","CENTER_NAME":"EARTH"},{"MEAN_MOTION_DOT":"0.00002370","RCS_SIZE":"LARGE","GP_ID":"195822110","NORAD_CAT_ID":"48664","DECAY_DATE":null,"RA_OF_ASC_NODE":"303.8102","OBJECT_TYPE":"PAYLOAD","COUNTRY_CODE":"US","MEAN_ELEMENT_THEORY":"SGP4","BSTAR":"0.00017790000000","OBJECT_ID":"2021-044AC","MEAN_MOTION_DDOT":"0.0000000000000","TIME_SYSTEM":"UTC","TLE_LINE2":"2 48664  53.0559 303.8102 0001615  59.9854 300.1295 15.06417622 39834","SEMIMAJOR_AXIS":"6925.295","MEAN_ANOMALY":"300.1295","CENTER_NAME":"EARTH","REF_FRAME":"TEME","LAUNCH_DATE":"2021-05-26","SITE":"AFETR","INCLINATION":"53.0559","REV_AT_EPOCH":"3983","MEAN_MOTION":"15.06417622","ELEMENT_SET_NO":"999","PERIOD":"95.591","FILE":"3298493","CLASSIFICATION_TYPE":"U","ARG_OF_PERICENTER":"59.9854","OBJECT_NAME":"STARLINK-2709","APOAPSIS":"548.278","ECCENTRICITY":"0.00016150","EPHEMERIS_TYPE":"0","PERIAPSIS":"546.041","TLE_LINE1":"1 48664U 21044AC  22043.40657540  .00002370  00000-0  17790-3 0  9990","EPOCH":"2022-02-12T09:45:28.114560"},{"MEAN_MOTION_DDOT":"0.0000000000000","BSTAR":"-0.00039554000000","OBJECT_ID":"2021-044AD","MEAN_ELEMENT_THEORY":"SGP4","COUNTRY_CODE":"US","OBJECT_TYPE":"PAYLOAD","RA_OF_ASC_NODE":"302.2590","DECAY_DATE":null,"NORAD_CAT_ID":"48665","RCS_SIZE":"LARGE","GP_ID":"195827340","MEAN_MOTION_DOT":"-0.00006170","EPOCH":"2022-02-12T18:03:02.391264","TLE_LINE1":"1 48665U 21044AD  22043.75211101 -.00006170  00000-0 -39554-3 0  9994","EPHEMERIS_TYPE":"0","PERIAPSIS":"546.019","ECCENTRICITY":"0.00016870","APOAPSIS":"548.356","ARG_OF_PERICENTER":"72.2449","OBJECT_NAME":"STARLINK-2653","FILE":"3298729","CLASSIFICATION_TYPE":"U","PERIOD":"95.592","ELEMENT_SET_NO":"999","MEAN_MOTION":"15.06408503","REV_AT_EPOCH":"4078","INCLINATION":"53.0564","SITE":"AFETR","REF_FRAME":"TEME","LAUNCH_DATE":"2021-05-26","CENTER_NAME":"EARTH","TLE_LINE2":"2 48665  53.0564 302.2590 0001687  72.2449 287.8724 15.06408503 40784","SEMIMAJOR_AXIS":"6925.322","MEAN_ANOMALY":"287.8724","TIME_SYSTEM":"UTC"},{"MEAN_ELEMENT_THEORY":"SGP4","COUNTRY_CODE":"US","OBJECT_TYPE":"PAYLOAD","RA_OF_ASC_NODE":"303.5859","DECAY_DATE":null,"NORAD_CAT_ID":"48666","GP_ID":"195822609","RCS_SIZE":"LARGE","MEAN_MOTION_DOT":"0.00004768","MEAN_MOTION_DDOT":"0.0000000000000","OBJECT_ID":"2021-044AE","BSTAR":"0.00033852000000","PERIOD":"95.591","ELEMENT_SET_NO":"999","MEAN_MOTION":"15.06424993","REV_AT_EPOCH":"3983","INCLINATION":"53.0551","SITE":"AFETR","REF_FRAME":"TEME","LAUNCH_DATE":"2021-05-26","SEMIMAJOR_AXIS":"6925.272","TLE_LINE2":"2 48666  53.0551 303.5859 0001796  65.2943 294.8232 15.06424993 39832","CENTER_NAME":"EARTH","MEAN_ANOMALY":"294.8232","TIME_SYSTEM":"UTC","EPOCH":"2022-02-12T10:53:07.694592","TLE_LINE1":"1 48666U 21044AE  22043.45356128  .00004768  00000-0  33852-3 0  9995","EPHEMERIS_TYPE":"0","PERIAPSIS":"545.893","ECCENTRICITY":"0.00017960","APOAPSIS":"548.381","ARG_OF_PERICENTER":"65.2943","OBJECT_NAME":"STARLINK-2666","CLASSIFICATION_TYPE":"U","FILE":"3298493"},{"TIME_SYSTEM":"UTC","LAUNCH_DATE":"2021-05-26","REF_FRAME":"TEME","SEMIMAJOR_AXIS":"6925.327","TLE_LINE2":"2 48667  53.0555 302.0255 0001510  63.6638 296.4506 15.06406950 40734","MEAN_ANOMALY":"296.4506","CENTER_NAME":"EARTH","REV_AT_EPOCH":"4073","SITE":"AFETR","INCLINATION":"53.0555","MEAN_MOTION":"15.06406950","PERIOD":"95.592","ELEMENT_SET_NO":"999","FILE":"3298733","CLASSIFICATION_TYPE":"U","ARG_OF_PERICENTER":"63.6638","OBJECT_NAME":"STARLINK-2735","APOAPSIS":"548.238","ECCENTRICITY":"0.00015100","TLE_LINE1":"1 48667U 21044AF  22043.80097109 -.00003577  00000-0 -22130-3 0  9992","PERIAPSIS":"546.147","EPHEMERIS_TYPE":"0","EPOCH":"2022-02-12T19:13:23.902176","GP_ID":"195827404","RCS_SIZE":"LARGE","MEAN_MOTION_DOT":"-0.00003577","NORAD_CAT_ID":"48667","DECAY_DATE":null,"RA_OF_ASC_NODE":"302.0255","COUNTRY_CODE":"US","OBJECT_TYPE":"PAYLOAD","MEAN_ELEMENT_THEORY":"SGP4","BSTAR":"-0.00022130000000","OBJECT_ID":"2021-044AF","MEAN_MOTION_DDOT":"0.0000000000000"}];
